NORAD_CAT_ID,OBJECT_NAME,OBJECT_TYPE,EPOCH,MEAN_MOTION,ECCENTRICITY,INCLINATION,RA_OF_ASC_NODE,ARG_OF_PERICENTER,MEAN_ANOMALY,BSTAR,MEAN_MOTION_DOT,MEAN_MOTION_DDOT,TLE_LINE0,TLE_LINE1,TLE_LINE2,SEMIMAJOR_AXIS,PERIOD,APOGEE,PERIGEE,DECAYED
53019.0,STARLINK-4282,PAYLOAD,2023-07-17 00:49:16,15.08843425,0.0001133,53.2172,103.6066,86.6412,273.471,4.4725e-05,4.24e-06,0.0,0 STARLINK-4282,1 53019U 22076AK  23198.03421902  .00000424  00000-0  44725-4 0  9995,2 53019  53.2172 103.6066 0001133  86.6412 273.4710 15.08843425 57520,6917.87,95.437,540.519,538.951,0.0
53019.0,STARLINK-4282,PAYLOAD,2023-07-18 02:15:26,15.0884179,0.0001167,53.2174,98.8491,86.0424,274.0701,0.00017644,2.521e-05,0.0,0 STARLINK-4282,1 53019U 22076AK  23199.09405913  .00002521  00000-0  17644-3 0  9995,2 53019  53.2174  98.8491 0001167  86.0424 274.0701 15.08841790 57680,6917.875,95.437,540.547,538.933,0.0
53019.0,STARLINK-4282,PAYLOAD,2023-07-19 02:06:13,15.08842753,0.0001285,53.2179,94.3876,89.321,270.793,7.8025e-05,9.54e-06,0.0,0 STARLINK-4282,1 53019U 22076AK  23200.08766119  .00000954  00000-0  78025-4 0  9994,2 53019  53.2179  94.3876 0001285  89.3210 270.7930 15.08842753 57837,6917.872,95.437,540.626,538.848,0.0
53019.0,STARLINK-4282,PAYLOAD,2023-07-20 16:15:29,15.08832264,0.0001153,53.2173,87.2482,103.968,256.144,0.0001053,1.388e-05,0.0,0 STARLINK-4282,1 53019U 22076AK  23201.67742685  .00001388  00000-0  10530-3 0  9990,2 53019  53.2173  87.2482 0001153 103.9680 256.1440 15.08832264 58070,6917.904,95.438,540.567,538.971,0.0
53019.0,STARLINK-4282,PAYLOAD,2023-07-21 01:47:48,15.08843472,0.0001316,53.2169,85.4669,86.9624,273.1518,0.00014542,2.027e-05,0.0,0 STARLINK-4282,1 53019U 22076AK  23202.07486125  .00002027  00000-0  14542-3 0  9997,2 53019  53.2169  85.4669 0001316  86.9624 273.1518 15.08843472 58136,6917.87,95.437,540.645,538.824,0.0
53019.0,STARLINK-4282,PAYLOAD,2023-07-21 16:06:16,15.08838145,0.0001306,53.2167,82.7915,85.7788,274.3353,5.3467e-05,5.63e-06,0.0,0 STARLINK-4282,1 53019U 22076AK  23202.67103003  .00000563  00000-0  53467-4 0  9997,2 53019  53.2167  82.7915 0001306  85.7788 274.3353 15.08838145 58226,6917.886,95.438,540.655,538.848,0.0
53019.0,STARLINK-4282,PAYLOAD,2023-07-24 01:20:10,15.08834362,0.000119,53.2176,72.0832,96.7641,263.3487,2.8502e-06,-2.42e-06,0.0,0 STARLINK-4282,1 53019U 22076AK  23205.05567282 -.00000242  00000-0  28502-5 0  9993,2 53019  53.2176  72.0832 0001190  96.7641 263.3487 15.08834362 58118,6917.898,95.438,540.586,538.939,0.0
53019.0,STARLINK-4282,PAYLOAD,2023-07-25 13:54:02,15.08836359,0.0001452,53.2152,65.2458,86.0409,274.0749,0.00010965,1.457e-05,0.0,0 STARLINK-4282,1 53019U 22076AK  23206.57919104  .00001457  00000-0  10965-3 0  9995,2 53019  53.2152  65.2458 0001452  86.0409 274.0749 15.08836359 58348,6917.892,95.438,540.761,538.752,0.0
53019.0,STARLINK-4282,PAYLOAD,2023-07-26 01:01:44,15.08833705,9.82e-05,53.2168,63.1628,95.8652,264.2452,4.04e-05,3.55e-06,0.0,0 STARLINK-4282,1 53019U 22076AK  23207.04287644  .00000355  00000-0  40400-4 0  9999,2 53019  53.2168  63.1628 0000982  95.8652 264.2452 15.08833705 58418,6917.9,95.438,540.444,539.085,0.0
53019.0,STARLINK-4282,PAYLOAD,2023-07-27 00:52:30,15.08851466,8.39e-05,53.2173,58.7024,92.4078,267.701,0.00010412,1.37e-05,0.0,0 STARLINK-4282,1 53019U 22076AK  23208.03646260  .00001370  00000-0  10412-3 0  9999,2 53019  53.2173  58.7024 0000839  92.4078 267.7010 15.08851466 59031,6917.845,95.437,540.291,539.13,0.0
53019.0,STARLINK-4282,PAYLOAD,2023-07-27 07:14:04,15.08829396,0.0001211,53.2167,57.512,75.2999,284.8127,3.1637e-05,2.16e-06,0.0,0 STARLINK-4282,1 53019U 22076AK  23208.30143955  .00000216  00000-0  31637-4 0  9993,2 53019  53.2167  57.5120 0001211  75.2999 284.8127 15.08829396 59074,6917.913,95.438,540.616,538.94,0.0
53019.0,STARLINK-4282,PAYLOAD,2023-07-27 13:35:37,15.08826865,0.0001257,53.2171,56.3234,73.9231,286.19,1.969e-05,2.5e-07,0.0,0 STARLINK-4282,1 53019U 22076AK  23208.56640310  .00000025  00000-0  19690-4 0  9991,2 53019  53.2171  56.3234 0001257  73.9231 286.1900 15.08826865 58640,6917.921,95.438,540.655,538.916,0.0
53019.0,STARLINK-4282,PAYLOAD,2023-07-27 21:32:33,15.08828459,9.47e-05,53.2176,54.8371,70.3274,289.7821,2.5069e-05,1.11e-06,0.0,0 STARLINK-4282,1 53019U 22076AK  23208.89760749  .00000111  00000-0  25069-4 0  9999,2 53019  53.2176  54.8371 0000947  70.3274 289.7821 15.08828459 58690,6917.916,95.438,540.436,539.126,0.0
53019.0,STARLINK-4282,PAYLOAD,2023-07-28 13:26:19,15.08946042,0.0001733,53.219,51.864,56.577,303.5388,-0.0015769,-0.0002537,0.0,0 STARLINK-4282,1 53019U 22076AK  23209.55994844 -.00025370  00000-0 -15769-2 0  9998,2 53019  53.2190  51.8640 0001733  56.5770 303.5388 15.08946042 58796,6917.556,95.431,540.62,538.222,0.0
53019.0,STARLINK-4282,PAYLOAD,2023-07-29 00:34:05,15.08842416,9.2e-05,53.2157,49.7855,58.2409,301.8673,0.0003798,5.762e-05,0.0,0 STARLINK-4282,1 53019U 22076AK  23210.02367568  .00005762  00000-0  37980-3 0  9990,2 53019  53.2157  49.7855 0000920  58.2409 301.8673 15.08842416 59337,6917.873,95.437,540.374,539.102,0.0
53019.0,STARLINK-4282,PAYLOAD,2023-07-29 19:38:42,15.08845002,9.8e-05,53.2179,46.2137,65.9188,294.1907,0.00022977,3.371e-05,0.0,0 STARLINK-4282,1 53019U 22076AK  23210.81855247  .00003371  00000-0  22977-3 0  9997,2 53019  53.2179  46.2137 0000980  65.9188 294.1907 15.08845002 59452,6917.865,95.437,540.408,539.052,0.0
53019.0,STARLINK-4282,PAYLOAD,2023-07-30 19:29:30,15.08846985,9.42e-05,53.2181,41.7556,65.4505,294.6586,-6.5595e-06,-3.92e-06,0.0,0 STARLINK-4282,1 53019U 22076AK  23211.81215365 -.00000392  00000-0 -65595-5 0  9996,2 53019  53.2181  41.7556 0000942  65.4505 294.6586 15.08846985 59602,6917.859,95.437,540.376,539.072,0.0
53019.0,STARLINK-4282,PAYLOAD,2023-07-31 17:44:54,15.08838624,0.0001013,53.2183,37.5913,76.1555,283.955,-1.4593e-06,-3.11e-06,0.0,0 STARLINK-4282,1 53019U 22076AK  23212.73951896 -.00000311  00000-0 -14593-5 0  9997,2 53019  53.2183  37.5913 0001013  76.1555 283.9550 15.08838624 59746,6917.885,95.438,540.45,539.049,0.0
53019.0,STARLINK-4282,PAYLOAD,2023-07-31 22:31:03,15.0884472,9.41e-05,53.2178,36.6977,75.5216,284.588,3.6854e-05,2.99e-06,0.0,0 STARLINK-4282,1 53019U 22076AK  23212.93823357  .00000299  00000-0  36854-4 0  9995,2 53019  53.2178  36.6977 0000941  75.5216 284.5880 15.08844720 59776,6917.866,95.437,540.382,539.08,0.0
53019.0,STARLINK-4282,PAYLOAD,2023-08-01 19:11:04,15.0883611,0.0001016,53.2188,32.8324,90.9004,269.2104,3.7778e-05,3.13e-06,0.0,0 STARLINK-4282,1 53019U 22076AK  23213.79936063  .00000313  00000-0  37778-4 0  9992,2 53019  53.2188  32.8324 0001016  90.9004 269.2104 15.08836110 59909,6917.892,95.438,540.46,539.054,0.0
53019.0,STARLINK-4282,PAYLOAD,2023-08-02 19:01:51,15.08847434,0.0001046,53.2193,28.3723,91.0632,269.048,0.00012604,1.719e-05,0.0,0 STARLINK-4282,1 53019U 22076AK  23214.79295418  .00001719  00000-0  12604-3 0  9996,2 53019  53.2193  28.3723 0001046  91.0632 269.0480 15.08847434 60054,6917.858,95.437,540.446,538.999,0.0
53019.0,STARLINK-4282,PAYLOAD,2023-08-03 10:55:43,15.08839469,0.0001073,53.2191,25.3986,91.1611,268.9504,9.0859e-05,1.159e-05,0.0,0 STARLINK-4282,1 53019U 22076AK  23215.45536044  .00001159  00000-0  90859-4 0  9990,2 53019  53.2191  25.3986 0001073  91.1611 268.9504 15.08839469 60153,6917.882,95.438,540.489,539.005,0.0
53019.0,STARLINK-4282,PAYLOAD,2023-08-04 10:46:30,15.08824038,9.81e-05,53.218,20.937,84.0302,276.0802,0.00022465,3.288e-05,0.0,0 STARLINK-4282,1 53019U 22076AK  23216.44896819  .00003288  00000-0  22465-3 0  9991,2 53019  53.2180  20.9370 0000981  84.0302 276.0802 15.08824038 60308,6917.929,95.439,540.473,539.116,0.0
53019.0,STARLINK-4282,PAYLOAD,2023-08-04 18:43:26,15.08836849,0.0001033,53.2183,19.4512,76.1314,283.9793,6.3476e-05,7.23e-06,0.0,0 STARLINK-4282,1 53019U 22076AK  23216.78016620  .00000723  00000-0  63476-4 0  9991,2 53019  53.2183  19.4512 0001033  76.1314 283.9793 15.08836849 60350,6917.89,95.438,540.47,539.04,0.0
53019.0,STARLINK-4282,PAYLOAD,2023-08-05 10:37:17,15.08843328,8.99e-05,53.2185,16.4764,73.5244,286.5847,9.2766e-05,1.189e-05,0.0,0 STARLINK-4282,1 53019U 22076AK  23217.44256000  .00001189  00000-0  92766-4 0  9994,2 53019  53.2185  16.4764 0000899  73.5244 286.5847 15.08843328 60450,6917.87,95.437,540.357,539.113,0.0
53019.0,STARLINK-4282,PAYLOAD,2023-08-05 16:58:47,15.08868519,0.0001286,53.2185,15.2876,66.1628,293.9499,0.00031091,4.667e-05,0.0,0 STARLINK-4282,1 53019U 22076AK  23217.70749823  .00004667  00000-0  31091-3 0  9990,2 53019  53.2185  15.2876 0001286  66.1628 293.9499 15.08868519 60494,6917.793,95.436,540.548,538.769,0.0
53019.0,STARLINK-4282,PAYLOAD,2023-08-06 10:28:04,15.08801899,0.0002289,53.2187,12.0176,180.9089,179.19,0.00049618,7.609e-05,0.0,0 STARLINK-4282,1 53019U 22076AK  23218.43616706  .00007609  00000-0  49618-3 0  9997,2 53019  53.2187  12.0176 0002289 180.9089 179.1900 15.08801899 60607,6917.997,95.44,541.445,538.278,0.0
53019.0,STARLINK-4282,PAYLOAD,2023-08-07 10:18:53,15.0883578,7.24e-05,53.2183,7.5558,100.5082,259.5992,-0.00022643,-3.889e-05,0.0,0 STARLINK-4282,1 53019U 22076AK  23219.42978116 -.00003889  00000-0 -22643-3 0  9990,2 53019  53.2183   7.5558 0000724 100.5082 259.5992 15.08835780 60755,6917.893,95.438,540.259,539.257,0.0
53019.0,STARLINK-4282,PAYLOAD,2023-08-07 16:40:24,15.08848863,8.68e-05,53.2183,6.3668,107.1968,252.9119,-0.00021111,-3.647e-05,0.0,0 STARLINK-4282,1 53019U 22076AK  23219.69473192 -.00003647  00000-0 -21111-3 0  9994,2 53019  53.2183   6.3668 0000868 107.1968 252.9119 15.08848863 60797,6917.853,95.437,540.319,539.118,0.0
53019.0,STARLINK-4282,PAYLOAD,2023-08-08 16:31:11,15.08860181,6.83e-05,53.2179,1.9073,99.1206,260.9863,0.00080351,0.0001253,0.0,0 STARLINK-4282,1 53019U 22076AK  23220.68832818  .00012530  00000-0  80351-3 0  9999,2 53019  53.2179   1.9073 0000683  99.1206 260.9863 15.08860181 60942,6917.819,95.436,540.156,539.211,0.0
